{
    "links": {
        "self": "http://www.neowsapp.com/rest/v1/neo/3785920?api_key=iIulBulltgU6a56xZRHN4H3l9WmuAYTsLGpBGhQ2"
    },
    "id": "3785920",
    "neo_reference_id": "3785920",
    "name": "(2017 TO5)",
    "designation": "2017 TO5",
    "nasa_jpl_url": "http://ssd.jpl.nasa.gov/sbdb.cgi?sstr=3785920",
    "absolute_magnitude_h": 25.3,
    "estimated_diameter": {
        "kilometers": {
            "estimated_diameter_min": 0.0231502122,
            "estimated_diameter_max": 0.0517654482
        },
        "meters": {
            "estimated_diameter_min": 23.150212221,
            "estimated_diameter_max": 51.7654482198
        },
        "miles": {
            "estimated_diameter_min": 0.0143848705,
            "estimated_diameter_max": 0.0321655483
        },
        "feet": {
            "estimated_diameter_min": 75.9521422633,
            "estimated_diameter_max": 169.8341531374
        }
    },
    "is_potentially_hazardous_asteroid": false,
    "close_approach_data": [
        {
            "close_approach_date": "2017-10-18",
            "close_approach_date_full": "2017-Oct-18 00:00",
            "epoch_date_close_approach": 1508284800000,
            "relative_velocity": {
                "kilometers_per_second": "5.2603841696",
                "kilometers_per_hour": "18937.3830106153",
                "miles_per_hour": "11766.9533490126"
            },
            "miss_distance": {
                "astronomical": "0.1054998548",
                "lunar": "41.0394435172",
                "kilometers": "15782553.563389276",
                "miles": "9806824.0358169688"
            },
            "orbiting_body": "Earth"
        }
    ],
    "orbital_data": {
        "orbit_id": "6",
        "orbit_determination_date": "2017-11-10 06:17:55",
        "first_observation_date": "2017-10-13",
        "last_observation_date": "2017-11-09",
        "data_arc_in_days": 27,
        "observations_used": 33,
        "orbit_uncertainty": "8",
        "minimum_orbit_intersection": ".103355",
        "jupiter_tisserand_invariant": "3.853",
        "epoch_osculation": "2458046.5",
        "eccentricity": ".416939086102141",
        "semi_major_axis": "1.881180284649923",
        "inclination": "5.776137532610507",
        "ascending_node_longitude": "216.8918180559503",
        "orbital_period": "942.4190464694573",
        "perihelion_distance": "1.096842695974619",
        "perihelion_argument": "164.084484736015",
        "aphelion_distance": "2.665517873325228",
        "perihelion_time": "2458042.096936017295",
        "mean_anomaly": "1.681951399127598",
        "mean_motion": ".3819956752239378",
        "equinox": "J2000",
        "orbit_class": {
            "orbit_class_type": "AMO",
            "orbit_class_description": "Near-Earth asteroid orbits similar to that of 1221 Amor",
            "orbit_class_range": "1.017 AU < q (perihelion) < 1.3 AU"
        }
    },
    "is_sentry_object": false
}